[
    {
        "Altitude(m)": 566228.783851428,
        "Argument of Periapsis(deg)": 0.019868973332140504,
        "Eccentricity": 0.0,
        "Inclination(deg)": 53.0,
        "Latitude(deg)": -39.27464936171459,
        "Longitude(deg)": -84.58450124363985,
        "Mean Anomaly(deg)": -127.90702139726719,
        "RAAN(deg)": 159.97043010558406,
        "Satellite Name": "Starlink Shell 1 716",
        "Satellite Number": 716,
        "Semi-Major Axis(m)": 6931778.249405717,
        "Time(s)": 570
    },
    {
        "Altitude(m)": 566391.2133083573,
        "Argument of Periapsis(deg)": 0.02021755181165174,
        "Eccentricity": 0.0,
        "Inclination(deg)": 53.0,
        "Latitude(deg)": -39.66857702295704,
        "Longitude(deg)": -83.99712160078788,
        "Mean Anomaly(deg)": -127.28019019371052,
        "RAAN(deg)": 159.96991133550657,
        "Satellite Name": "Starlink Shell 1 716",
        "Satellite Number": 716,
        "Semi-Major Axis(m)": 6931778.249405717,
        "Time(s)": 580
    },
    {
        "Altitude(m)": 566552.3155488182,
        "Argument of Periapsis(deg)": 0.020566130291162974,
        "Eccentricity": 0.0,
        "Inclination(deg)": 53.0,
        "Latitude(deg)": -40.059027642596696,
        "Longitude(deg)": -83.40261421675484,
        "Mean Anomaly(deg)": -126.65335899015382,
        "RAAN(deg)": 159.9693925654291,
        "Satellite Name": "Starlink Shell 1 716",
        "Satellite Number": 716,
        "Semi-Major Axis(m)": 6931778.249405717,
        "Time(s)": 590
    },
    {
        "Altitude(m)": 566712.0278542361,
        "Argument of Periapsis(deg)": 0.020914708770674213,
        "Eccentricity": 0.0,
        "Inclination(deg)": 53.0,
        "Latitude(deg)": -40.44591465622177,
        "Longitude(deg)": -82.80086268387623,
        "Mean Anomaly(deg)": -126.02652778659713,
        "RAAN(deg)": 159.96887379535164,
        "Satellite Name": "Starlink Shell 1 716",
        "Satellite Number": 716,
        "Semi-Major Axis(m)": 6931778.249405717,
        "Time(s)": 600
    },
    {
        "Altitude(m)": 566870.2879795848,
        "Argument of Periapsis(deg)": 0.021263287250185448,
        "Eccentricity": 0.0,
        "Inclination(deg)": 53.0,
        "Latitude(deg)": -40.82914968740603,
        "Longitude(deg)": -82.19175174940743,
        "Mean Anomaly(deg)": -125.39969658304047,
        "RAAN(deg)": 159.96835502527415,
        "Satellite Name": "Starlink Shell 1 716",
        "Satellite Number": 716,
        "Semi-Major Axis(m)": 6931778.249405717,
        "Time(s)": 610
    },
    {
        "Altitude(m)": 567027.0341809745,
        "Argument of Periapsis(deg)": 0.021611865729696686,
        "Eccentricity": 0.0,
        "Inclination(deg)": 53.0,
        "Latitude(deg)": -41.20864253736223,
        "Longitude(deg)": -81.57516705740704,
        "Mean Anomaly(deg)": -124.77286537948363,
        "RAAN(deg)": 159.9678362551967,
        "Satellite Name": "Starlink Shell 1 716",
        "Satellite Number": 716,
        "Semi-Major Axis(m)": 6931778.249405717,
        "Time(s)": 620
    },
    {
        "Altitude(m)": 567182.205243,
        "Argument of Periapsis(deg)": 0.02196044420920792,
        "Eccentricity": 0.0,
        "Inclination(deg)": 53.0,
        "Latitude(deg)": -41.584301177878146,
        "Longitude(deg)": -80.95099658802181,
        "Mean Anomaly(deg)": -124.14603417592694,
        "RAAN(deg)": 159.9673174851192,
        "Satellite Name": "Starlink Shell 1 716",
        "Satellite Number": 716,
        "Semi-Major Axis(m)": 6931778.249405717,
        "Time(s)": 630
    },
    {
        "Altitude(m)": 567335.7405058368,
        "Argument of Periapsis(deg)": 0.02230902268871916,
        "Eccentricity": 0.0,
        "Inclination(deg)": 53.0,
        "Latitude(deg)": -41.956031747851206,
        "Longitude(deg)": -80.31912959220465,
        "Mean Anomaly(deg)": -123.51920297237028,
        "RAAN(deg)": 159.96679871504173,
        "Satellite Name": "Starlink Shell 1 716",
        "Satellite Number": 716,
        "Semi-Major Axis(m)": 6931778.249405717,
        "Time(s)": 640
    },
    {
        "Altitude(m)": 567487.5798920786,
        "Argument of Periapsis(deg)": 0.022657601168230398,
        "Eccentricity": 0.0,
        "Inclination(deg)": 53.0,
        "Latitude(deg)": -42.32373855374916,
        "Longitude(deg)": -79.67945806520483,
        "Mean Anomaly(deg)": -122.89237176881353,
        "RAAN(deg)": 159.96627994496427,
        "Satellite Name": "Starlink Shell 1 716",
        "Satellite Number": 716,
        "Semi-Major Axis(m)": 6931778.249405717,
        "Time(s)": 650
    },
    {
        "Altitude(m)": 567637.6639332902,
        "Argument of Periapsis(deg)": 0.023006179647741636,
        "Eccentricity": 0.0,
        "Inclination(deg)": 53.0,
        "Latitude(deg)": -42.68732407434231,
        "Longitude(deg)": -79.03187655675472,
        "Mean Anomaly(deg)": -122.26554056525688,
        "RAAN(deg)": 159.9657611748868,
        "Satellite Name": "Starlink Shell 1 716",
        "Satellite Number": 716,
        "Semi-Major Axis(m)": 6931778.249405717,
        "Time(s)": 660
    },
    {
        "Altitude(m)": 567785.9337962886,
        "Argument of Periapsis(deg)": 0.023354758127252868,
        "Eccentricity": 0.0,
        "Inclination(deg)": 53.0,
        "Latitude(deg)": -43.04668897006625,
        "Longitude(deg)": -78.37628199920997,
        "Mean Anomaly(deg)": -121.6387093617001,
        "RAAN(deg)": 159.96524240480932,
        "Satellite Name": "Starlink Shell 1 716",
        "Satellite Number": 716,
        "Semi-Major Axis(m)": 6931778.249405717,
        "Time(s)": 670
    },
    {
        "Altitude(m)": 567932.331309112,
        "Argument of Periapsis(deg)": 0.023703336606764106,
        "Eccentricity": 0.0,
        "Inclination(deg)": 53.0,
        "Latitude(deg)": -43.401732097385555,
        "Longitude(deg)": -77.71257506673041,
        "Mean Anomaly(deg)": -121.01187815814339,
        "RAAN(deg)": 159.96472363473185,
        "Satellite Name": "Starlink Shell 1 716",
        "Satellite Number": 716,
        "Semi-Major Axis(m)": 6931778.249405717,
        "Time(s)": 680
    },
    {
        "Altitude(m)": 568076.798986688,
        "Argument of Periapsis(deg)": 0.024051915086275345,
        "Eccentricity": 0.0,
        "Inclination(deg)": 53.0,
        "Latitude(deg)": -43.75235052854384,
        "Longitude(deg)": -77.0406600398546,
        "Mean Anomaly(deg)": -120.3850469545867,
        "RAAN(deg)": 159.96420486465436,
        "Satellite Name": "Starlink Shell 1 716",
        "Satellite Number": 716,
        "Semi-Major Axis(m)": 6931778.249405717,
        "Time(s)": 690
    },
    {
        "Altitude(m)": 568219.2800561759,
        "Argument of Periapsis(deg)": 0.024400493565786583,
        "Eccentricity": 0.0,
        "Inclination(deg)": 53.0,
        "Latitude(deg)": -44.09843957709328,
        "Longitude(deg)": -76.36044468835142,
        "Mean Anomaly(deg)": -119.75821575102992,
        "RAAN(deg)": 159.9636860945769,
        "Satellite Name": "Starlink Shell 1 716",
        "Satellite Number": 716,
        "Semi-Major Axis(m)": 6931778.249405717,
        "Time(s)": 700
    },
    {
        "Altitude(m)": 568359.718482012,
        "Argument of Periapsis(deg)": 0.024749072045297815,
        "Eccentricity": 0.0,
        "Inclination(deg)": 53.0,
        "Latitude(deg)": -44.43989282960842,
        "Longitude(deg)": -75.67184168510354,
        "Mean Anomaly(deg)": -119.13138454747326,
        "RAAN(deg)": 159.96316732449944,
        "Satellite Name": "Starlink Shell 1 716",
        "Satellite Number": 716,
        "Semi-Major Axis(m)": 6931778.249405717,
        "Time(s)": 710
    },
    {
        "Altitude(m)": 568498.0589905421,
        "Argument of Periapsis(deg)": 0.025097650524809053,
        "Eccentricity": 0.0,
        "Inclination(deg)": 53.0,
        "Latitude(deg)": -44.77660218399435,
        "Longitude(deg)": -74.97476852501593,
        "Mean Anomaly(deg)": -118.50455334391651,
        "RAAN(deg)": 159.96264855442197,
        "Satellite Name": "Starlink Shell 1 716",
        "Satellite Number": 716,
        "Semi-Major Axis(m)": 6931778.249405717,
        "Time(s)": 720
    },
    {
        "Altitude(m)": 568634.2470943726,
        "Argument of Periapsis(deg)": 0.02544622900432029,
        "Eccentricity": 0.0,
        "Inclination(deg)": 53.0,
        "Latitude(deg)": -45.10845789480381,
        "Longitude(deg)": -74.26914746141851,
        "Mean Anomaly(deg)": -117.87772214035982,
        "RAAN(deg)": 159.96212978434448,
        "Satellite Name": "Starlink Shell 1 716",
        "Satellite Number": 716,
        "Semi-Major Axis(m)": 6931778.249405717,
        "Time(s)": 730
    },
    {
        "Altitude(m)": 568768.229116343,
        "Argument of Periapsis(deg)": 0.02579480748383153,
        "Eccentricity": 0.0,
        "Inclination(deg)": 53.0,
        "Latitude(deg)": -45.43534862598159,
        "Longitude(deg)": -73.55490697226347,
        "Mean Anomaly(deg)": -117.25089093680313,
        "RAAN(deg)": 159.96161101426702,
        "Satellite Name": "Starlink Shell 1 716",
        "Satellite Number": 716,
        "Semi-Major Axis(m)": 6931778.249405717,
        "Time(s)": 740
    },
    {
        "Altitude(m)": 568899.9522131,
        "Argument of Periapsis(deg)": 0.026143385963342765,
        "Eccentricity": 0.0,
        "Inclination(deg)": 53.0,
        "Latitude(deg)": -45.75716151145003,
        "Longitude(deg)": -72.83198172960837,
        "Mean Anomaly(deg)": -116.62405973324631,
        "RAAN(deg)": 159.96109224418953,
        "Satellite Name": "Starlink Shell 1 716",
        "Satellite Number": 716,
        "Semi-Major Axis(m)": 6931778.249405717,
        "Time(s)": 750
    }
]